[{"OBJECT_NAME":"STARLINK-4747","OBJECT_ID":"2022-114Q","EPOCH":"2025-08-17T11:06:37.814688","MEAN_MOTION":15.08832405,"ECCENTRICITY":0.0001312,"INCLINATION":53.2172,"RA_OF_ASC_NODE":140.6822,"ARG_OF_PERICENTER":80.2083,"MEAN_ANOMALY":279.9058,"EPHEMERIS_TYPE":0,"CLASSIFICATION_TYPE":"U","NORAD_CAT_ID":53832,"ELEMENT_SET_NO":999,"REV_AT_EPOCH":16200,"BSTAR":0.00010512,"MEAN_MOTION_DOT":1.385e-5,"MEAN_MOTION_DDOT":0},{"OBJECT_NAME":"STARLINK-4771","OBJECT_ID":"2022-114R","EPOCH":"2025-08-17T03:27:00.066528","MEAN_MOTION":15.08842304,"ECCENTRICITY":0.000167,"INCLINATION":53.2179,"RA_OF_ASC_NODE":142.2422,"ARG_OF_PERICENTER":88.977,"MEAN_ANOMALY":271.1414,"EPHEMERIS_TYPE":0,"CLASSIFICATION_TYPE":"U","NORAD_CAT_ID":53833,"ELEMENT_SET_NO":999,"REV_AT_EPOCH":16195,"BSTAR":-6.1924e-5,"MEAN_MOTION_DOT":-1.274e-5,"MEAN_MOTION_DDOT":0},{"OBJECT_NAME":"STARLINK-4737","OBJECT_ID":"2022-114S","EPOCH":"2025-08-17T10:56:01.288608","MEAN_MOTION":15.08835355,"ECCENTRICITY":0.0001478,"INCLINATION":53.218,"RA_OF_ASC_NODE":140.6371,"ARG_OF_PERICENTER":95.7933,"MEAN_ANOMALY":264.3228,"EPHEMERIS_TYPE":0,"CLASSIFICATION_TYPE":"U","NORAD_CAT_ID":53834,"ELEMENT_SET_NO":999,"REV_AT_EPOCH":16200,"BSTAR":2.2037e-5,"MEAN_MOTION_DOT":6.3e-7,"MEAN_MOTION_DDOT":0},{"OBJECT_NAME":"STARLINK-4783","OBJECT_ID":"2022-114T","EPOCH":"2025-08-17T11:11:56.209056","MEAN_MOTION":15.0883574,"ECCENTRICITY":0.0001294,"INCLINATION":53.2166,"RA_OF_ASC_NODE":140.704,"ARG_OF_PERICENTER":80.1351,"MEAN_ANOMALY":279.9787,"EPHEMERIS_TYPE":0,"CLASSIFICATION_TYPE":"U","NORAD_CAT_ID":53835,"ELEMENT_SET_NO":999,"REV_AT_EPOCH":16200,"BSTAR":2.0348e-5,"MEAN_MOTION_DOT":3.6e-7,"MEAN_MOTION_DDOT":0},{"OBJECT_NAME":"STARLINK-4778","OBJECT_ID":"2022-114U","EPOCH":"2025-08-17T10:30:55.189728","MEAN_MOTION":15.08848818,"ECCENTRICITY":0.0001072,"INCLINATION":53.2157,"RA_OF_ASC_NODE":131.2479,"ARG_OF_PERICENTER":85.5938,"MEAN_ANOMALY":274.5177,"EPHEMERIS_TYPE":0,"CLASSIFICATION_TYPE":"U","NORAD_CAT_ID":53836,"ELEMENT_SET_NO":999,"REV_AT_EPOCH":16213,"BSTAR":7.5648e-5,"MEAN_MOTION_DOT":9.17e-6,"MEAN_MOTION_DDOT":0},{"OBJECT_NAME":"STARLINK-4776","OBJECT_ID":"2022-114V","EPOCH":"2025-08-17T11:01:19.240608","MEAN_MOTION":15.08835406,"ECCENTRICITY":0.0001471,"INCLINATION":53.2179,"RA_OF_ASC_NODE":140.6579,"ARG_OF_PERICENTER":94.6386,"MEAN_ANOMALY":265.4774,"EPHEMERIS_TYPE":0,"CLASSIFICATION_TYPE":"U","NORAD_CAT_ID":53837,"ELEMENT_SET_NO":999,"REV_AT_EPOCH":16200,"BSTAR":9.0078e-5,"MEAN_MOTION_DOT":1.146e-5,"MEAN_MOTION_DDOT":0},{"OBJECT_NAME":"STARLINK-4773","OBJECT_ID":"2022-114W","EPOCH":"2025-08-17T10:25:38.174304","MEAN_MOTION":15.08834552,"ECCENTRICITY":0.0001479,"INCLINATION":53.2184,"RA_OF_ASC_NODE":131.2292,"ARG_OF_PERICENTER":89.4326,"MEAN_ANOMALY":270.6836,"EPHEMERIS_TYPE":0,"CLASSIFICATION_TYPE":"U","NORAD_CAT_ID":53838,"ELEMENT_SET_NO":999,"REV_AT_EPOCH":16213,"BSTAR":1.6548e-5,"MEAN_MOTION_DOT":-2.5e-7,"MEAN_MOTION_DDOT":0},{"OBJECT_NAME":"STARLINK-4784","OBJECT_ID":"2022-114X","EPOCH":"2025-08-17T10:36:15.152256","MEAN_MOTION":15.08844256,"ECCENTRICITY":0.0001357,"INCLINATION":53.218,"RA_OF_ASC_NODE":131.2756,"ARG_OF_PERICENTER":88.0307,"MEAN_ANOMALY":272.0841,"EPHEMERIS_TYPE":0,"CLASSIFICATION_TYPE":"U","NORAD_CAT_ID":53839,"ELEMENT_SET_NO":999,"REV_AT_EPOCH":16213,"BSTAR":-1.3302e-5,"MEAN_MOTION_DOT":-5.0e-6,"MEAN_MOTION_DDOT":0},{"OBJECT_NAME":"STARLINK-4766","OBJECT_ID":"2022-114Y","EPOCH":"2025-08-17T10:11:05.811648","MEAN_MOTION":15.08834818,"ECCENTRICITY":0.0001375,"INCLINATION":53.2167,"RA_OF_ASC_NODE":131.1638,"ARG_OF_PERICENTER":91.1977,"MEAN_ANOMALY":268.9173,"EPHEMERIS_TYPE":0,"CLASSIFICATION_TYPE":"U","NORAD_CAT_ID":53840,"ELEMENT_SET_NO":999,"REV_AT_EPOCH":16213,"BSTAR":-4.3549e-6,"MEAN_MOTION_DOT":-3.57e-6,"MEAN_MOTION_DDOT":0},{"OBJECT_NAME":"STARLINK-4750","OBJECT_ID":"2022-114Z","EPOCH":"2025-08-17T10:20:19.663296","MEAN_MOTION":15.08832815,"ECCENTRICITY":0.0001343,"INCLINATION":53.2168,"RA_OF_ASC_NODE":131.2054,"ARG_OF_PERICENTER":89.851,"MEAN_ANOMALY":270.2636,"EPHEMERIS_TYPE":0,"CLASSIFICATION_TYPE":"U","NORAD_CAT_ID":53841,"ELEMENT_SET_NO":999,"REV_AT_EPOCH":16213,"BSTAR":5.9759e-5,"MEAN_MOTION_DOT":6.63e-6,"MEAN_MOTION_DDOT":0},{"OBJECT_NAME":"STARLINK-4754","OBJECT_ID":"2022-114AA","EPOCH":"2025-08-16T18:05:14.858880","MEAN_MOTION":15.08831968,"ECCENTRICITY":0.0001413,"INCLINATION":53.2173,"RA_OF_ASC_NODE":134.0858,"ARG_OF_PERICENTER":92.3367,"MEAN_ANOMALY":267.7787,"EPHEMERIS_TYPE":0,"CLASSIFICATION_TYPE":"U","NORAD_CAT_ID":53842,"ELEMENT_SET_NO":999,"REV_AT_EPOCH":16203,"BSTAR":9.5744e-5,"MEAN_MOTION_DOT":1.236e-5,"MEAN_MOTION_DDOT":0},{"OBJECT_NAME":"STARLINK-4769","OBJECT_ID":"2022-114AB","EPOCH":"2025-08-17T10:15:01.236960","MEAN_MOTION":15.08833625,"ECCENTRICITY":0.000134,"INCLINATION":53.2165,"RA_OF_ASC_NODE":131.1815,"ARG_OF_PERICENTER":87.7342,"MEAN_ANOMALY":272.3804,"EPHEMERIS_TYPE":0,"CLASSIFICATION_TYPE":"U","NORAD_CAT_ID":53843,"ELEMENT_SET_NO":999,"REV_AT_EPOCH":16213,"BSTAR":6.2421e-5,"MEAN_MOTION_DOT":7.06e-6,"MEAN_MOTION_DDOT":0},{"OBJECT_NAME":"STARLINK-4745","OBJECT_ID":"2022-114AC","EPOCH":"2025-08-16T11:33:05.183136","MEAN_MOTION":15.08840278,"ECCENTRICITY":0.0001053,"INCLINATION":53.2174,"RA_OF_ASC_NODE":135.2307,"ARG_OF_PERICENTER":96.259,"MEAN_ANOMALY":263.8522,"EPHEMERIS_TYPE":0,"CLASSIFICATION_TYPE":"U","NORAD_CAT_ID":53844,"ELEMENT_SET_NO":999,"REV_AT_EPOCH":16199,"BSTAR":1.3378e-5,"MEAN_MOTION_DOT":-7.5e-7,"MEAN_MOTION_DDOT":0},{"OBJECT_NAME":"STARLINK-4753","OBJECT_ID":"2022-114AD","EPOCH":"2025-08-17T10:04:24.811968","MEAN_MOTION":15.08835772,"ECCENTRICITY":0.0001323,"INCLINATION":53.2177,"RA_OF_ASC_NODE":131.1556,"ARG_OF_PERICENTER":92.7354,"MEAN_ANOMALY":267.3789,"EPHEMERIS_TYPE":0,"CLASSIFICATION_TYPE":"U","NORAD_CAT_ID":53845,"ELEMENT_SET_NO":999,"REV_AT_EPOCH":16213,"BSTAR":7.0239e-6,"MEAN_MOTION_DOT":-1.76e-6,"MEAN_MOTION_DDOT":0},{"OBJECT_NAME":"STARLINK-4746","OBJECT_ID":"2022-114AE","EPOCH":"2025-08-17T11:13:16.055616","MEAN_MOTION":15.08846682,"ECCENTRICITY":0.0001347,"INCLINATION":53.2164,"RA_OF_ASC_NODE":130.7273,"ARG_OF_PERICENTER":83.6565,"MEAN_ANOMALY":276.4581,"EPHEMERIS_TYPE":0,"CLASSIFICATION_TYPE":"U","NORAD_CAT_ID":53846,"ELEMENT_SET_NO":999,"REV_AT_EPOCH":16214,"BSTAR":-7.6718e-5,"MEAN_MOTION_DOT":-1.509e-5,"MEAN_MOTION_DDOT":0},{"OBJECT_NAME":"STARLINK-4777","OBJECT_ID":"2022-114AF","EPOCH":"2025-08-17T03:32:14.933184","MEAN_MOTION":15.08839719,"ECCENTRICITY":0.0001475,"INCLINATION":53.2172,"RA_OF_ASC_NODE":132.2754,"ARG_OF_PERICENTER":113.9045,"MEAN_ANOMALY":246.2102,"EPHEMERIS_TYPE":0,"CLASSIFICATION_TYPE":"U","NORAD_CAT_ID":53847,"ELEMENT_SET_NO":999,"REV_AT_EPOCH":16209,"BSTAR":3.1122e-5,"MEAN_MOTION_DOT":2.07e-6,"MEAN_MOTION_DDOT":0},{"OBJECT_NAME":"STARLINK-4780","OBJECT_ID":"2022-114AG","EPOCH":"2025-08-17T11:02:38.996448","MEAN_MOTION":15.08841737,"ECCENTRICITY":0.0001465,"INCLINATION":53.2177,"RA_OF_ASC_NODE":130.6819,"ARG_OF_PERICENTER":86.1789,"MEAN_ANOMALY":273.937,"EPHEMERIS_TYPE":0,"CLASSIFICATION_TYPE":"U","NORAD_CAT_ID":53848,"ELEMENT_SET_NO":999,"REV_AT_EPOCH":16214,"BSTAR":3.5137e-5,"MEAN_MOTION_DOT":2.71e-6,"MEAN_MOTION_DDOT":0}]
