STARLINK-4747           
1 53832U 22114Q   25229.46293767  .00001385  00000+0  10512-3 0  9993
2 53832  53.2172 140.6822 0001312  80.2083 279.9058 15.08832405162009
STARLINK-4771           
1 53833U 22114R   25229.14375077 -.00001274  00000+0 -61924-4 0  9997
2 53833  53.2179 142.2422 0001670  88.9770 271.1414 15.08842304161958
STARLINK-4737           
1 53834U 22114S   25229.45557047  .00000063  00000+0  22037-4 0  9996
2 53834  53.2180 140.6371 0001478  95.7933 264.3228 15.08835355162001
STARLINK-4783           
1 53835U 22114T   25229.46662279  .00000036  00000+0  20348-4 0  9995
2 53835  53.2166 140.7040 0001294  80.1351 279.9787 15.08835740162008
STARLINK-4778           
1 53836U 22114U   25229.43813877  .00000917  00000+0  75648-4 0  9996
2 53836  53.2157 131.2479 0001072  85.5938 274.5177 15.08848818162132
STARLINK-4776           
1 53837U 22114V   25229.45925047  .00001146  00000+0  90078-4 0  9991
2 53837  53.2179 140.6579 0001471  94.6386 265.4774 15.08835406162000
STARLINK-4773           
1 53838U 22114W   25229.43446961 -.00000025  00000+0  16548-4 0  9999
2 53838  53.2184 131.2292 0001479  89.4326 270.6836 15.08834552162131
STARLINK-4784           
1 53839U 22114X   25229.44184204 -.00000500  00000+0 -13302-4 0  9994
2 53839  53.2180 131.2756 0001357  88.0307 272.0841 15.08844256162136
STARLINK-4766           
1 53840U 22114Y   25229.42437282 -.00000357  00000+0 -43549-5 0  9998
2 53840  53.2167 131.1638 0001375  91.1977 268.9173 15.08834818162134
STARLINK-4750           
1 53841U 22114Z   25229.43078314  .00000663  00000+0  59759-4 0  9994
2 53841  53.2168 131.2054 0001343  89.8510 270.2636 15.08832815162136
STARLINK-4754           
1 53842U 22114AA  25228.75364420  .00001236  00000+0  95744-4 0  9996
2 53842  53.2173 134.0858 0001413  92.3367 267.7787 15.08831968162038
STARLINK-4769           
1 53843U 22114AB  25229.42709765  .00000706  00000+0  62421-4 0  9994
2 53843  53.2165 131.1815 0001340  87.7342 272.3804 15.08833625162136
STARLINK-4745           
1 53844U 22114AC  25228.48130999 -.00000075  00000+0  13378-4 0  9994
2 53844  53.2174 135.2307 0001053  96.2590 263.8522 15.08840278161996
STARLINK-4753           
1 53845U 22114AD  25229.41973162 -.00000176  00000+0  70239-5 0  9998
2 53845  53.2177 131.1556 0001323  92.7354 267.3789 15.08835772162134
STARLINK-4746           
1 53846U 22114AE  25229.46754694 -.00001509  00000+0 -76718-4 0  9990
2 53846  53.2164 130.7273 0001347  83.6565 276.4581 15.08846682162145
STARLINK-4777           
1 53847U 22114AF  25229.14739506  .00000207  00000+0  31122-4 0  9993
2 53847  53.2172 132.2754 0001475 113.9045 246.2102 15.08839719162099
STARLINK-4780           
1 53848U 22114AG  25229.46017357  .00000271  00000+0  35137-4 0  9993
2 53848  53.2177 130.6819 0001465  86.1789 273.9370 15.08841737162147
